{"type": "FeatureCollection", "features": [ {"type": "Feature", "properties": {"norad_id": 33492, "name": "GOSAT (IBUKI)", "group": "resource", "lat": -23.317683151355943, "lon": 91.03841550404144, "alt_km": 674.4178670281071, "timestamp": "2025-12-04T19:33:59.288090+00:00", "meta": {"OBJECT_NAME": "GOSAT (IBUKI)", "OBJECT_ID": "2009-002A", "EPOCH": "2025-12-04T04:56:46.868064", "MEAN_MOTION": 14.67546755, "ECCENTRICITY": 9.86e-05, "INCLINATION": 98.0772, "RA_OF_ASC_NODE": 86.9285, "ARG_OF_PERICENTER": 71.9594, "MEAN_ANOMALY": 288.1718, "EPHEMERIS_TYPE": 0, "CLASSIFICATION_TYPE": "U", "NORAD_CAT_ID": 33492, "ELEMENT_SET_NO": 999, "REV_AT_EPOCH": 90286, "BSTAR": 0.0003326083, "MEAN_MOTION_DOT": 1.839e-05, "MEAN_MOTION_DDOT": 0}, "tle": {"line1": "1 33492U 09002A   25338.20609801  .00001839  00000+0  33261-3 0  9997", "line2": "2 33492  98.0772  86.9285 0000986  71.9594 288.1718 14.67546755902862"}}, "geometry": {"type": "Point", "coordinates": [91.03841550404144, -23.317683151355943]}}, {"type": "Feature", "properties": {"norad_id": 35681, "name": "DEIMOS-1", "group": "resource", "lat": -23.750036150346183, "lon": -43.631691597433324, "alt_km": 651.5344992701639, "timestamp": "2025-12-04T19:33:59.288100+00:00", "meta": {"OBJECT_NAME": "DEIMOS-1", "OBJECT_ID": "2009-041A", "EPOCH": "2025-12-04T08:52:34.162176", "MEAN_MOTION": 14.7493322, "ECCENTRICITY": 0.0002689, "INCLINATION": 97.7146, "RA_OF_ASC_NODE": 139.3633, "ARG_OF_PERICENTER": 95.19, "MEAN_ANOMALY": 264.9616, "EPHEMERIS_TYPE": 0, "CLASSIFICATION_TYPE": "U", "NORAD_CAT_ID": 35681, "ELEMENT_SET_NO": 999, "REV_AT_EPOCH": 87816, "BSTAR": 0.0002145842, "MEAN_MOTION_DOT": 1.394e-05, "MEAN_MOTION_DDOT": 0}, "tle": {"line1": "1 35681U 09041A   25338.36983984  .00001394  00000+0  21458-3 0  9997", "line2": "2 35681  97.7146 139.3633 0002689  95.1900 264.9616 14.74933220878165"}}, "geometry": {"type": "Point", "coordinates": [-43.631691597433324, -23.750036150346183]}}, {"type": "Feature", "properties": {"norad_id": 35682, "name": "DUBAISAT-1", "group": "resource", "lat": 30.84253260486667, "lon": -65.58403543296443, "alt_km": 651.7811776343651, "timestamp": "2025-12-04T19:33:59.288110+00:00", "meta": {"OBJECT_NAME": "DUBAISAT-1", "OBJECT_ID": "2009-041B", "EPOCH": "2025-12-04T05:51:55.938816", "MEAN_MOTION": 14.74566355, "ECCENTRICITY": 0.00100947, "INCLINATION": 97.9785, "RA_OF_ASC_NODE": 109.0497, "ARG_OF_PERICENTER": 343.6323, "MEAN_ANOMALY": 16.4559, "EPHEMERIS_TYPE": 0, "CLASSIFICATION_TYPE": "U", "NORAD_CAT_ID": 35682, "ELEMENT_SET_NO": 999, "REV_AT_EPOCH": 87636, "BSTAR": 0.0003672791, "MEAN_MOTION_DOT": 2.397e-05, "MEAN_MOTION_DDOT": 0}, "tle": {"line1": "1 35682U 09041B   25338.24439744  .00002397  00000+0  36728-3 0  9995", "line2": "2 35682  97.9785 109.0497 0010094 343.6323  16.4559 14.74566355876365"}}, "geometry": {"type": "Point", "coordinates": [-65.58403543296443, 30.84253260486667]}}, {"type": "Feature", "properties": {"norad_id": 35931, "name": "OCEANSAT-2", "group": "resource", "lat": -57.60350715098638, "lon": -6.607834880347198, "alt_km": 908.880985158542, "timestamp": "2025-12-04T19:33:59.288120+00:00", "meta": {"OBJECT_NAME": "OCEANSAT-2", "OBJECT_ID": "2009-051A", "EPOCH": "2025-12-04T07:50:09.324384", "MEAN_MOTION": 13.99626592, "ECCENTRICITY": 0.00165557, "INCLINATION": 98.223, "RA_OF_ASC_NODE": 339.7802, "ARG_OF_PERICENTER": 66.9223, "MEAN_ANOMALY": 293.3687, "EPHEMERIS_TYPE": 0, "CLASSIFICATION_TYPE": "U", "NORAD_CAT_ID": 35931, "ELEMENT_SET_NO": 999, "REV_AT_EPOCH": 85207, "BSTAR": -6.203793e-05, "MEAN_MOTION_DOT": -1.28e-06, "MEAN_MOTION_DDOT": 0}, "tle": {"line1": "1 35931U 09051A   25338.32649681 -.00000128  00000+0 -62038-4 0  9991", "line2": "2 35931  98.2230 339.7802 0016555  66.9223 293.3687 13.99626592852071"}}, "geometry": {"type": "Point", "coordinates": [-6.607834880347198, -57.60350715098638]}}, {"type": "Feature", "properties": {"norad_id": 35946, "name": "WORLDVIEW-2 (WV-2)", "group": "resource", "lat": 58.105950731182276, "lon": 36.14413980619277, "alt_km": 757.1827497801423, "timestamp": "2025-12-04T19:33:59.288139+00:00", "meta": {"OBJECT_NAME": "WORLDVIEW-2 (WV-2)", "OBJECT_ID": "2009-055A", "EPOCH": "2025-12-04T07:36:00.071136", "MEAN_MOTION": 14.37646986, "ECCENTRICITY": 0.00054307, "INCLINATION": 98.477, "RA_OF_ASC_NODE": 49.5187, "ARG_OF_PERICENTER": 87.1094, "MEAN_ANOMALY": 273.0714, "EPHEMERIS_TYPE": 0, "CLASSIFICATION_TYPE": "U", "NORAD_CAT_ID": 35946, "ELEMENT_SET_NO": 999, "REV_AT_EPOCH": 84764, "BSTAR": 0.00015506993, "MEAN_MOTION_DOT": 4.22e-06, "MEAN_MOTION_DDOT": 0}, "tle": {"line1": "1 35946U 09055A   25338.31666749  .00000422  00000+0  15507-3 0  9997", "line2": "2 35946  98.4770  49.5187 0005430  87.1094 273.0714 14.37646986847646"}}, "geometry": {"type": "Point", "coordinates": [36.14413980619277, 58.105950731182276]}}, {"type": "Feature", "properties": {"norad_id": 36036, "name": "SMOS", "group": "resource", "lat": 34.93231816230891, "lon": 158.02913091527984, "alt_km": 756.2406968091818, "timestamp": "2025-12-04T19:33:59.288150+00:00", "meta": {"OBJECT_NAME": "SMOS", "OBJECT_ID": "2009-059A", "EPOCH": "2025-12-04T02:43:26.424192", "MEAN_MOTION": 14.3979047, "ECCENTRICITY": 0.00010223, "INCLINATION": 98.4384, "RA_OF_ASC_NODE": 163.2893, "ARG_OF_PERICENTER": 71.8401, "MEAN_ANOMALY": 288.2899, "EPHEMERIS_TYPE": 0, "CLASSIFICATION_TYPE": "U", "NORAD_CAT_ID": 36036, "ELEMENT_SET_NO": 999, "REV_AT_EPOCH": 84538, "BSTAR": 0.00025734118, "MEAN_MOTION_DOT": 7.64e-06, "MEAN_MOTION_DDOT": 0}, "tle": {"line1": "1 36036U 09059A   25338.11350028  .00000764  00000+0  25734-3 0  9992", "line2": "2 36036  98.4384 163.2893 0001022  71.8401 288.2899 14.39790470845382"}}, "geometry": {"type": "Point", "coordinates": [158.02913091527984, 34.93231816230891]}}, {"type": "Feature", "properties": {"norad_id": 36110, "name": "YAOGAN-7", "group": "resource", "lat": -37.90782004815539, "lon": 34.28874463320937, "alt_km": 642.9151000918073, "timestamp": "2025-12-04T19:33:59.288160+00:00", "meta": {"OBJECT_NAME": "YAOGAN-7", "OBJECT_ID": "2009-069A", "EPOCH": "2025-12-04T05:34:43.330080", "MEAN_MOTION": 14.77713153, "ECCENTRICITY": 0.00237508, "INCLINATION": 98.0303, "RA_OF_ASC_NODE": 220.0196, "ARG_OF_PERICENTER": 310.0549, "MEAN_ANOMALY": 49.8578, "EPHEMERIS_TYPE": 0, "CLASSIFICATION_TYPE": "U", "NORAD_CAT_ID": 36110, "ELEMENT_SET_NO": 999, "REV_AT_EPOCH": 86083, "BSTAR": 0.00020574845, "MEAN_MOTION_DOT": 1.428e-05, "MEAN_MOTION_DDOT": 0}, "tle": {"line1": "1 36110U 09069A   25338.23244595  .00001428  00000+0  20575-3 0  9996", "line2": "2 36110  98.0303 220.0196 0023750 310.0549  49.8578 14.77713153860830"}}, "geometry": {"type": "Point", "coordinates": [34.28874463320937, -37.90782004815539]}}, {"type": "Feature", "properties": {"norad_id": 36605, "name": "TANDEM-X", "group": "resource", "lat": 4.338127635320099, "lon": -16.257337117528607, "alt_km": 510.76103735372635, "timestamp": "2025-12-04T19:33:59.288170+00:00", "meta": {"OBJECT_NAME": "TANDEM-X", "OBJECT_ID": "2010-030A", "EPOCH": "2025-12-03T15:05:32.620128", "MEAN_MOTION": 15.19160106, "ECCENTRICITY": 0.00017772, "INCLINATION": 97.4443, "RA_OF_ASC_NODE": 343.1419, "ARG_OF_PERICENTER": 93.6994, "MEAN_ANOMALY": 266.4444, "EPHEMERIS_TYPE": 0, "CLASSIFICATION_TYPE": "U", "NORAD_CAT_ID": 36605, "ELEMENT_SET_NO": 999, "REV_AT_EPOCH": 85695, "BSTAR": 0.00010004139, "MEAN_MOTION_DOT": 2.035e-05, "MEAN_MOTION_DDOT": 0}, "tle": {"line1": "1 36605U 10030A   25337.62884977  .00002035  00000+0  10004-3 0  9992", "line2": "2 36605  97.4443 343.1419 0001777  93.6994 266.4444 15.19160106856953"}}, "geometry": {"type": "Point", "coordinates": [-16.257337117528607, 4.338127635320099]}}, {"type": "Feature", "properties": {"norad_id": 36795, "name": "CARTOSAT-2B", "group": "resource", "lat": 62.55591210994715, "lon": -136.62030344526227, "alt_km": 618.4186224547084, "timestamp": "2025-12-04T19:33:59.288179+00:00", "meta": {"OBJECT_NAME": "CARTOSAT-2B", "OBJECT_ID": "2010-035A", "EPOCH": "2025-12-04T07:40:30.967968", "MEAN_MOTION": 14.7876927, "ECCENTRICITY": 0.00128862, "INCLINATION": 97.7865, "RA_OF_ASC_NODE": 27.6233, "ARG_OF_PERICENTER": 102.2984, "MEAN_ANOMALY": 257.9671, "EPHEMERIS_TYPE": 0, "CLASSIFICATION_TYPE": "U", "NORAD_CAT_ID": 36795, "ELEMENT_SET_NO": 999, "REV_AT_EPOCH": 83105, "BSTAR": 0.00021446399, "MEAN_MOTION_DOT": 1.528e-05, "MEAN_MOTION_DDOT": 0}, "tle": {"line1": "1 36795U 10035A   25338.31980287  .00001528  00000+0  21446-3 0  9993", "line2": "2 36795  97.7865  27.6233 0012886 102.2984 257.9671 14.78769270831053"}}, "geometry": {"type": "Point", "coordinates": [-136.62030344526227, 62.55591210994715]}}, {"type": "Feature", "properties": {"norad_id": 36834, "name": "YAOGAN-10", "group": "resource", "lat": 30.306623349011, "lon": -5.968916869201663, "alt_km": 612.7522038428569, "timestamp": "2025-12-04T19:33:59.288189+00:00", "meta": {"OBJECT_NAME": "YAOGAN-10", "OBJECT_ID": "2010-038A", "EPOCH": "2025-12-03T19:57:32.552064", "MEAN_MOTION": 14.84554289, "ECCENTRICITY": 0.00015101, "INCLINATION": 97.915, "RA_OF_ASC_NODE": 357.7191, "ARG_OF_PERICENTER": 84.468, "MEAN_ANOMALY": 92.504, "EPHEMERIS_TYPE": 0, "CLASSIFICATION_TYPE": "U", "NORAD_CAT_ID": 36834, "ELEMENT_SET_NO": 999, "REV_AT_EPOCH": 82821, "BSTAR": 0.00024459282, "MEAN_MOTION_DOT": 2.01e-05, "MEAN_MOTION_DDOT": 0}, "tle": {"line1": "1 36834U 10038A   25337.83162676  .00002010  00000+0  24459-3 0  9994", "line2": "2 36834  97.9150 357.7191 0001510  84.4680  92.5040 14.84554289828218"}}, "geometry": {"type": "Point", "coordinates": [-5.968916869201663, 30.306623349011]}}]}